ASTRA 1M                
1 33436U 08057A   25097.54065862  .00000104  00000+0  00000+0 0  9991
2 33436   0.0719  75.2498 0002179 350.8732 343.7272  1.00273738 41363
EUTELSAT HOTBIRD 13C    
1 33459U 08065A   25097.24873606 -.00000115  00000+0  00000+0 0  9998
2 33459   1.8275  84.2665 0004818 273.0523 275.4795  1.00272027 42975
EXPRESS-AM44            
1 33595U 09007A   25097.63232828 -.00000102  00000+0  00000+0 0  9990
2 33595   2.3416  83.7340 0004119 286.6395  42.4068  1.00272281 47910
NSS-9                   
1 33749U 09008A   25097.22544872  .00000056  00000+0  00000+0 0  9999
2 33749   0.1366  78.3132 0002379 298.4242  83.2254  1.00272937 59155
TELSTAR 11N             
1 34111U 09009A   25097.51225343 -.00000267  00000+0  00000+0 0  9990
2 34111   0.0207 189.4588 0002622 171.4820 341.9533  1.00265748 41870
WGS F2 (USA 204)        
1 34713U 09017A   25097.50947287  .00000052  00000+0  00000+0 0  9995
2 34713   0.0180 189.0688 0000352 130.9111 116.9433  1.00269552 41243
SES-7 (PROTOSTAR 2)     
1 34941U 09027A   25097.55838221 -.00000361  00000+0  00000+0 0  9995
2 34941   0.1025  79.9014 0001209 251.6988 173.7194  1.00269252 58262
MEASAT-3A               
1 35362U 09032A   25097.53517124 -.00000126  00000+0  00000+0 0  9992
2 35362   0.0428  40.8475 0003372 336.6132 171.2367  1.00271995  3668
GOES 14                 
1 35491U 09033A   25097.58681016 -.00000082  00000+0  00000+0 0  9994
2 35491   0.5507  88.9308 0000353 170.6816  39.4470  1.00269828 57787
FM-5                    
1 35493U 09034A   25097.58239111 -.00000215  00000+0  00000+0 0  9990
2 35493   0.0315 266.9688 0002935 295.7150 116.9195  1.00270783 42273
TERRESTAR-1             
1 35496U 09035A   25097.51485515 -.00000068  00000+0  00000+0 0  9994
2 35496   4.8596  48.4882 0002588 324.8186 257.0561  1.00270373 57764
ASIASAT 5               
1 35696U 09042A   25097.55681836 -.00000323  00000+0  00000+0 0  9996
2 35696   0.0255 252.2173 0001694 111.5106 133.2959  1.00269101 57341
JCSAT-12 (JCSAT-RA)     
1 35755U 09044A   25095.19280670 -.00000344  00000+0  00000+0 0  9996
2 35755   0.0178 170.8656 0001035 158.6379  65.6611  1.00270044 57212
OPTUS D3                
1 35756U 09044B   25097.53517124 -.00000161  00000+0  00000+0 0  9991
2 35756   0.7720  85.5272 0005355 291.1402 168.0601  1.00274537 57193
NIMIQ 5                 
1 35873U 09050A   25097.29862537 -.00000273  00000+0  00000+0 0  9996
2 35873   0.0508  83.9466 0002622 292.8843 213.7751  1.00271953 56976
AMAZONAS 2              
1 35942U 09054A   25097.49270323 -.00000297  00000+0  00000+0 0  9991
2 35942   0.6862  89.3769 0003474 284.0665 299.1251  1.00270052 56814
COMSATBW-1              
1 35943U 09054B   25097.54943353  .00000009  00000+0  00000+0 0  9998
2 35943   0.0324  92.6649 0002941 291.2396  72.9334  1.00272189 56929
NSS-12                  
1 36032U 09058A   25097.60339324  .00000056  00000+0  00000+0 0  9998
2 36032   0.0581  47.0597 0003599 320.3704 102.8981  1.00273032 56555
THOR 6                  
1 36033U 09058B   25097.25108184 -.00000026  00000+0  00000+0 0  9996
2 36033   0.0176 133.1106 0001850 256.9391 255.2431  1.00271108 56637
INTELSAT 14 (IS-14)     
1 36097U 09064A   25097.51225343 -.00000289  00000+0  00000+0 0  9990
2 36097   0.0426  39.3367 0002419 336.5635 319.5381  1.00271487 56233
EUTELSAT 36B            
1 36101U 09065A   25097.54691400  .00000096  00000+0  00000+0 0  9996
2 36101   0.0988  49.5131 0006456 331.6019  62.3137  1.00272946 56346
INTELSAT 15 (IS-15)     
1 36106U 09067A   25097.55377755 -.00000200  00000+0  00000+0 0  9996
2 36106   0.0192 192.7411 0002385 191.7131  96.1278  1.00268927 36867
WGS F3 (USA 211)        
1 36108U 09068A   25097.60669722 -.00000319  00000+0  00000+0 0  9994
2 36108   0.2364  87.6983 0001580   2.1584  80.6891  0.99708568 42235
DIRECTV 12              
1 36131U 09075A   25097.54003155 -.00000119  00000+0  00000+0 0  9991
2 36131   0.0315  54.8456 0000575 341.9698 250.9228  1.00270769 42189
BEIDOU-2 G1             
1 36287U 10001A   25097.56472447 -.00000293  00000+0  00000+0 0  9993
2 36287   3.2796  60.4889 0004644 297.0708 182.2517  1.00270852 55800
RADUGA-1M 2             
1 36358U 10002A   25097.57551571 -.00000088  00000+0  00000+0 0  9992
2 36358   2.4831  84.3382 0007320 251.3188 262.3816  0.98968704 45719
SDO                     
1 36395U 10005A   25096.01696602 -.00000065  00000+0  00000+0 0  9994
2 36395  33.7361  93.0268 0000458 204.5293 161.4163  1.00273914 55684
INTELSAT 16 (IS-16)     
1 36397U 10006A   25097.52180558 -.00000260  00000+0  00000+0 0  9999
2 36397   0.0147 168.1380 0001971 222.9109 276.6391  1.00268271 55351
EWS-G2 (GOES 15)        
1 36411U 10008A   25097.59675056  .00000023  00000+0  00000+0 0  9993
2 36411   0.1487  86.5816 0002696 196.4529 189.1970  1.00273457 55273
ECHOSTAR 14             
1 36499U 10010A   25097.58472503 -.00000015  00000+0  00000+0 0  9995
2 36499   0.0182 231.5890 0001887 149.7259 266.3744  1.00271976 42183
SES-1                   
1 36516U 10016A   25097.51685340 -.00000130  00000+0  00000+0 0  9997
2 36516   0.0309 290.4331 0002573  84.1651 266.4862  1.00271991 54664
ASTRA 3B                
1 36581U 10021A   25096.97028451  .00000121  00000+0  00000+0 0  9997
2 36581   0.3388  89.8454 0003541 303.3274 175.1349  1.00274511 54493
COMSATBW-2              
1 36582U 10021B   25097.53944230  .00000072  00000+0  00000+0 0  9998
2 36582   0.0474  85.7832 0001553 278.1268  39.4613  1.00270851 54584
BEIDOU-2 G3             
1 36590U 10024A   25097.50392072 -.00000147  00000+0  00000+0 0  9992
2 36590   3.4879  62.3605 0008998 330.4002  64.1981  1.00270035 54404
BADR-5                  
1 36592U 10025A   25097.60044691  .00000129  00000+0  00000+0 0  9996
2 36592   0.0412 127.2443 0002297 295.0874  15.9300  1.00269695 48842
COMS 1                  
1 36744U 10032A   25097.49087617 -.00000357  00000+0  00000+0 0  9999
2 36744   3.6883  80.9108 0000996 292.9590 126.9954  1.00271301 46720
ARABSAT-5A              
1 36745U 10032B   25097.60044691  .00000138  00000+0  00000+0 0  9994
2 36745   0.0747  52.5285 0004863 343.2963  46.9374  1.00273368 54274
ECHOSTAR 15             
1 36792U 10034A   25097.52467264 -.00000297  00000+0  00000+0 0  9991
2 36792   0.0505  75.6152 0002421 269.8249 337.8152  1.00270813 53957
BEIDOU-2 IGSO-1         
1 36828U 10036A   25096.98537735 -.00000135  00000+0  00000+0 0  9994
2 36828  54.2652 166.9033 0048642 215.4848 271.9617  1.00297701 53724
NILESAT 201             
1 36830U 10037A   25097.24986551 -.00000074  00000+0  00000+0 0  9994
2 36830   0.0312 132.6242 0002892 260.4910 245.5951  1.00271776 53999
RASCOM-QAF 1R           
1 36831U 10037B   25097.21850322  .00000002  00000+0  00000+0 0  9998
2 36831   0.0443 100.2046 0005985 274.4017 262.6741  1.00272337 53921
AEHF-1 (USA 214)        
1 36868U 10039A   25097.60209997  .00000139  00000+0  00000+0 0  9990
2 36868   7.1271  73.6050 0004327 309.0189  60.2292  1.00267531 49298
XM-5                    
1 37185U 10053A   25097.58542008 -.00000038  00000+0  00000+0 0  9998
2 37185   0.0316 268.7797 0002097 292.6933  90.1741  1.00270011 53118
BSAT-3B                 
1 37207U 10056B   25097.59013322 -.00000366  00000+0  00000+0 0  9993
2 37207   0.0201 175.1531 0000924 114.4028 228.8304  1.00272135 47731
BEIDOU-2 G4             
1 37210U 10057A   25097.21155128 -.00000127  00000+0  00000+0 0  9993
2 37210   2.5662  70.4396 0006195 207.4660 153.9428  1.00271009 52921
SKYTERRA 1              
1 37218U 10061A   25097.51676652 -.00000130  00000+0  00000+0 0  9993
2 37218   4.2089  50.3118 0002023 346.8519 243.5470  1.00271230 52858
HYLAS 1                 
1 37237U 10065A   25097.60731394 -.00000156  00000+0  00000+0 0  9991
2 37237   4.5359  78.3380 0000339 352.2267 338.9843  0.99655505 52639
INTELSAT 17 (IS-17)     
1 37238U 10065B   25097.58927947 -.00000018  00000+0  00000+0 0  9997
2 37238   0.0259 235.5522 0002767 159.1614  79.5225  1.00272563 48888
BEIDOU-2 IGSO-2         
1 37256U 10068A   25097.43169631 -.00000189  00000+0  00000+0 0  9991
2 37256  48.3367 277.2098 0039912 210.4661 330.5168  1.00258040 52424
EUTELSAT KA-SAT 9A      
1 37258U 10069A   25097.53857350  .00000046  00000+0  00000+0 0  9998
2 37258   0.0821 290.0328 0003660 170.3530 298.5465  1.00271889 39632
HISPASAT 30W-5          
1 37264U 10070A   25097.29128132 -.00000232  00000+0  00000+0 0  9997
2 37264   0.0516 102.6155 0003324 297.5615 230.4966  1.00272477 48814
KOREASAT 6              
1 37265U 10070B   25097.53517124 -.00000128  00000+0  00000+0 0  9992
2 37265   0.0185  85.6990 0001811 269.6809 193.2262  1.00268661 52403
BEIDOU-2 IGSO-3         
1 37384U 11013A   25097.64500755 -.00000187  00000+0  00000+0 0  9991
2 37384  61.7925  44.2797 0029857 182.4717 309.7736  1.00284135 51297
INTELSAT 28 (IS-28)     
1 37392U 11016A   25097.46029429 -.00000226  00000+0  00000+0 0  9991
2 37392   0.6788  88.2868 0004012 286.4884 320.6152  1.00143515 48913
YAHSAT 1A               
1 37393U 11016B   25097.54734840  .00000085  00000+0  00000+0 0  9993
2 37393   0.0181 192.6731 0003220 183.8965  69.0044  1.00271629 38038
SBIRS GEO-1 (USA 230)   
1 37481U 11019A   25097.60461032  .00000087  00000+0  00000+0 0  9993
2 37481   3.5936  51.8516 0002486 327.8821  85.8344  1.00272442 51031
TELSTAR 14R             
1 37602U 11021A   25097.52441199 -.00000296  00000+0  00000+0 0  9997
2 37602   0.0467  72.4286 0003122 303.3682 306.0236  1.00271905 51415
GSAT-8                  
1 37605U 11022A   25097.54786969  .00000069  00000+0  00000+0 0  9997
2 37605   1.0038  87.3088 0006048 216.2421 144.8248  1.00273487 48842
ST-2                    
1 37606U 11022B   25097.60481744 -.00000227  00000+0  00000+0 0  9995
2 37606   0.0181 189.5576 0001624 183.2258 129.0803  1.00272415 50917
